SEEDS II (CO-66)        
1 32791U 08021J   26068.92109284  .00023758  00000+0  84213-3 0  9995
2 32791  97.7519  62.3611 0001448 359.2618   0.8619 15.29097235972108
STARLINK-31349          
1 59317U 24056X   26068.48338253 -.00000207  00000+0  20049-5 0  9999
2 59317  42.9995 231.7936 0001108 266.9092  93.1633 15.27574483111194
